[Satellite]
VERSION=1.1
NAME=CZ-6A DEB
NICKNAME=CZ-6A DEB
TLE1=1 54541U 22151KR  22342.39931969  .00000102  00000+0  87030-4 0  9996
TLE2=2 54541  98.8197 346.8126 0061858  20.4507 339.9118 14.06055063  3455
STATUS=0
